OBJECT_NAME,OBJECT_ID,EPOCH,MEAN_MOTION,ECCENTRICITY,INCLINATION,RA_OF_ASC_NODE,ARG_OF_PERICENTER,MEAN_ANOMALY,EPHEMERIS_TYPE,CLASSIFICATION_TYPE,NORAD_CAT_ID,ELEMENT_SET_NO,REV_AT_EPOCH,BSTAR,MEAN_MOTION_DOT,MEAN_MOTION_DDOT
HODOYOSHI-4,2014-033B,2026-07-23T19:31:24.824928,14.88208607,.0023435,97.5471,27.8719,180.0912,180.0306,0,U,40011,999,65425,.24222E-3,.2193E-4,0
DEIMOS-2,2014-033D,2026-07-23T21:23:54.113856,14.93815067,.0001516,97.5787,78.0835,104.3677,255.7712,0,U,40013,999,64320,.11051E-3,.1118E-4,0
HODOYOSHI-3,2014-033F,2026-07-23T08:36:24.423264,14.85450267,.0031597,97.6455,5.9522,233.8359,125.9932,0,U,40015,999,65299,.12351E-3,.1021E-4,0
SPOT 7,2014-034A,2026-07-23T19:44:52.857600,14.60986150,.0001692,98.0610,266.3668,93.6773,266.4622,0,U,40053,999,64248,.84639E-4,.37E-5,0
SKYSAT-B,2014-037D,2026-07-23T20:08:25.734336,14.88108065,.000615,98.3859,165.9005,146.8472,213.3130,0,U,40072,999,65141,.1379E-3,.1208E-4,0
WORLDVIEW-3 (WV-3),2014-048A,2026-07-23T19:43:04.263168,14.85074303,.0001903,97.8550,279.1465,142.2739,217.8610,0,U,40115,999,64734,.86724E-4,.688E-5,0
GAOFEN-2,2014-049A,2026-07-23T20:45:46.712736,14.80935318,.0008681,98.0089,269.0335,110.7983,249.4160,0,U,40118,999,64466,.93049E-4,.667E-5,0
YAOGAN-21,2014-053A,2026-07-23T20:50:32.002080,15.26841290,.0006661,97.1462,243.5369,335.9239,24.1688,0,U,40143,999,66055,.19844E-3,.5166E-4,0
YAOGAN-22,2014-063A,2026-07-23T09:15:48.458592,13.15531757,.0006909,100.7772,356.2677,108.4376,251.7487,0,U,40275,999,56457,.10482E-3,-.7E-7,0
ASNARO,2014-070A,2026-07-23T20:05:38.040576,15.19471238,.000448,97.3435,279.9629,67.3390,292.8318,0,U,40298,999,64957,.32137E-3,.6753E-4,0
YAOGAN-24,2014-072A,2026-07-23T19:43:17.917824,14.76128981,.0015254,98.1533,342.4741,142.8830,217.3437,0,U,40310,999,62912,.20145E-3,.134E-4,0
CBERS 4,2014-079A,2026-07-23T20:09:11.761344,14.35517482,.0000551,98.3513,260.5172,80.3548,279.7700,0,U,40336,999,60921,.27527E-4,.37E-6,0
YAOGAN-26,2014-088A,2026-07-23T20:22:03.714240,15.48729944,.0001013,97.0656,204.2366,252.7191,107.3950,0,U,40362,999,64337,.49683E-3,.26594E-3,0
SMAP,2015-003A,2026-07-23T19:08:33.998208,14.63394623,.0001638,98.1288,211.3756,92.1878,267.9511,0,U,40376,999,61297,.81589E-4,.375E-5,0
KOMPSAT-3A,2015-014A,2026-07-23T20:37:23.741184,15.55872387,.0054815,97.6898,198.9566,45.0205,315.5472,0,U,40536,999,62751,.49794E-3,.36886E-3,0
SENTINEL-2A,2015-028A,2026-07-23T20:35:37.097664,14.30815619,.000135,98.5670,279.1864,95.9931,264.1406,0,U,40697,999,57897,-.21125E-4,-.99E-6,0
GAOFEN-8,2015-030A,2026-07-23T20:05:44.549952,15.47213925,.0009563,97.6898,40.4410,69.3828,290.8445,0,U,40701,999,61711,.58891E-3,.29977E-3,0
CARBONITE 1 (CBNT-1),2015-032D,2026-07-23T19:18:05.255136,14.83690345,.001466,97.6535,21.3435,168.2561,191.8998,0,U,40718,999,59477,.27954E-3,.2263E-4,0
YAOGAN-27,2015-040A,2026-07-23T21:34:01.875648,13.16071051,.000879,100.1183,189.6916,126.2943,233.8983,0,U,40878,999,52249,-.10813E-2,-.453E-5,0
GAOFEN-9 01,2015-047A,2026-07-23T20:05:20.720832,14.82947842,.0027816,97.6267,238.8645,23.0319,337.2135,0,U,40894,999,58562,.11947E-3,.925E-5,0
YAOGAN-28,2015-064A,2026-07-23T20:57:20.154816,15.27847196,.0011812,97.3112,342.4077,66.1273,294.1203,0,U,41026,999,59628,.28788E-3,.777E-4,0
YAOGAN-29,2015-069A,2026-07-23T21:07:20.703072,14.83109215,.0000077,98.0026,233.5685,142.3618,217.7601,0,U,41038,999,57606,-.22141E-4,-.234E-5,0
KENT RIDGE 1,2015-077B,2026-07-23T15:16:41.673216,15.23320367,.000827,14.9811,354.8725,33.6031,326.4815,0,U,41167,999,58666,.13528E-3,.4076E-4,0
GAOFEN-4,2015-083A,2026-07-23T22:02:31.212384,1.00274242,.0003863,0.4492,83.8410,121.0665,173.0523,0,U,41194,999,3889,0,-.33E-5,0
JASON-3,2016-002A,2026-07-23T19:38:19.498272,12.87629000,.0008121,66.0415,48.8219,270.0942,89.9146,0,U,41240,999,49196,.67311E-4,-.45E-6,0
SENTINEL-3A,2016-011A,2026-07-23T19:47:02.461056,14.26736224,.0001287,98.6230,271.6781,86.8623,273.2705,0,U,41335,999,54328,.80335E-4,.151E-5,0
ZIYUAN 3-02 (ZY 3-02),2016-033A,2026-07-23T21:23:59.069760,15.21169092,.0013635,97.3822,279.9589,158.0300,202.1523,0,U,41556,999,56356,.28915E-3,.6391E-4,0
CARTOSAT-2C,2016-040A,2026-07-23T11:35:57.588288,15.19310130,.0008686,97.4464,263.9576,19.1280,341.0279,0,U,41599,999,55922,.19304E-3,.401E-4,0
SKYSAT-C1,2016-040C,2026-07-23T13:18:05.268960,15.36853586,.0001052,96.9557,234.3127,184.1507,175.9730,0,U,41601,999,56345,.24102E-3,.8608E-4,0
LAPAN-A3,2016-040E,2026-07-23T20:52:38.870976,15.33319162,.0008492,97.1510,199.8193,237.5813,122.4609,0,U,41603,999,56043,.11348E-3,.3581E-4,0
GAOFEN-3,2016-049A,2026-07-23T20:30:09.428256,14.42219020,.0001777,98.4029,212.0876,82.3084,277.8307,0,U,41727,999,52393,.4295E-5,-.29E-6,0
