HODOYOSHI-4             
1 40011U 14033B   26204.81348177  .00002193  00000+0  24222-3 0  9999
2 40011  97.5471  27.8719 0023435 180.0912 180.0306 14.88208607654257
DEIMOS-2                
1 40013U 14033D   26204.89159854  .00001118  00000+0  11051-3 0  9993
2 40013  97.5787  78.0835 0001516 104.3677 255.7712 14.93815067643203
HODOYOSHI-3             
1 40015U 14033F   26204.35861601  .00001021  00000+0  12351-3 0  9993
2 40015  97.6455   5.9522 0031597 233.8359 125.9932 14.85450267652993
SPOT 7                  
1 40053U 14034A   26204.82283400  .00000370  00000+0  84639-4 0  9998
2 40053  98.0610 266.3668 0001692  93.6773 266.4622 14.60986150642480
SKYSAT-B                
1 40072U 14037D   26204.83918674  .00001208  00000+0  13790-3 0  9991
2 40072  98.3859 165.9005 0006150 146.8472 213.3130 14.88108065651418
WORLDVIEW-3 (WV-3)      
1 40115U 14048A   26204.82157712  .00000688  00000+0  86724-4 0  9997
2 40115  97.8550 279.1465 0001903 142.2739 217.8610 14.85074303647346
GAOFEN-2                
1 40118U 14049A   26204.86512399  .00000667  00000+0  93049-4 0  9996
2 40118  98.0089 269.0335 0008681 110.7983 249.4160 14.80935318644664
YAOGAN-21               
1 40143U 14053A   26204.86842595  .00005166  00000+0  19844-3 0  9992
2 40143  97.1462 243.5369 0006661 335.9239  24.1688 15.26841290660557
YAOGAN-22               
1 40275U 14063A   26204.38597753 -.00000007  00000+0  10482-3 0  9998
2 40275 100.7772 356.2677 0006909 108.4376 251.7487 13.15531757564572
ASNARO                  
1 40298U 14070A   26204.83724584  .00006753  00000+0  32137-3 0  9999
2 40298  97.3435 279.9629 0004480  67.3390 292.8318 15.19471238649579
YAOGAN-24               
1 40310U 14072A   26204.82173516  .00001340  00000+0  20145-3 0  9991
2 40310  98.1533 342.4741 0015254 142.8830 217.3437 14.76128981629121
CBERS 4                 
1 40336U 14079A   26204.83971946  .00000037  00000+0  27527-4 0  9994
2 40336  98.3513 260.5172 0000551  80.3548 279.7700 14.35517482609219
YAOGAN-26               
1 40362U 14088A   26204.84865410  .00026594  00000+0  49683-3 0  9994
2 40362  97.0656 204.2366 0001013 252.7191 107.3950 15.48729944643376
SMAP                    
1 40376U 15003A   26204.79761572  .00000375  00000+0  81589-4 0  9996
2 40376  98.1288 211.3756 0001638  92.1878 267.9511 14.63394623612973
KOMPSAT-3A              
1 40536U 15014A   26204.85930256  .00036886  00000+0  49794-3 0  9997
2 40536  97.6898 198.9566 0054815  45.0205 315.5472 15.55872387627519
SENTINEL-2A             
1 40697U 15028A   26204.85806826 -.00000099  00000+0 -21125-4 0  9993
2 40697  98.5670 279.1864 0001350  95.9931 264.1406 14.30815619578972
GAOFEN-8                
1 40701U 15030A   26204.83732118  .00029977  00000+0  58891-3 0  9995
2 40701  97.6898  40.4410 0009563  69.3828 290.8445 15.47213925617110
CARBONITE 1 (CBNT-1)    
1 40718U 15032D   26204.80422749  .00002263  00000+0  27954-3 0  9993
2 40718  97.6535  21.3435 0014660 168.2561 191.8998 14.83690345594771
YAOGAN-27               
1 40878U 15040A   26204.89863282 -.00000453  00000+0 -10813-2 0  9995
2 40878 100.1183 189.6916 0008790 126.2943 233.8983 13.16071051522497
GAOFEN-9 01             
1 40894U 15047A   26204.83704538  .00000925  00000+0  11947-3 0  9994
2 40894  97.6267 238.8645 0027816  23.0319 337.2135 14.82947842585621
YAOGAN-28               
1 41026U 15064A   26204.87314994  .00007770  00000+0  28788-3 0  9994
2 41026  97.3112 342.4077 0011812  66.1273 294.1203 15.27847196596284
YAOGAN-29               
1 41038U 15069A   26204.88010073 -.00000234  00000+0 -22141-4 0  9992
2 41038  98.0026 233.5685 0000077 142.3618 217.7601 14.83109215576066
KENT RIDGE 1            
1 41167U 15077B   26204.63659344  .00004076  00000+0  13528-3 0  9991
2 41167  14.9811 354.8725 0008270  33.6031 326.4815 15.23320367586664
GAOFEN-4                
1 41194U 15083A   26204.91841681 -.00000330  00000+0  00000+0 0  9993
2 41194   0.4492  83.8410 0003863 121.0665 173.0523  1.00274242 38896
JASON-3                 
1 41240U 16002A   26204.81828123 -.00000045  00000+0  67311-4 0  9998
2 41240  66.0415  48.8219 0008121 270.0942  89.9146 12.87629000491964
SENTINEL-3A             
1 41335U 16011A   26204.82433404  .00000151  00000+0  80335-4 0  9996
2 41335  98.6230 271.6781 0001287  86.8623 273.2705 14.26736224543284
ZIYUAN 3-02 (ZY 3-02)   
1 41556U 16033A   26204.89165590  .00006391  00000+0  28915-3 0  9997
2 41556  97.3822 279.9589 0013635 158.0300 202.1523 15.21169092563564
CARTOSAT-2C             
1 41599U 16040A   26204.48330542  .00004010  00000+0  19304-3 0  9996
2 41599  97.4464 263.9576 0008686  19.1280 341.0279 15.19310130559224
SKYSAT-C1               
1 41601U 16040C   26204.55422765  .00008608  00000+0  24102-3 0  9996
2 41601  96.9557 234.3127 0001052 184.1507 175.9730 15.36853586563456
LAPAN-A3                
1 41603U 16040E   26204.86989434  .00003581  00000+0  11348-3 0  9996
2 41603  97.1510 199.8193 0008492 237.5813 122.4609 15.33319162560437
GAOFEN-3                
1 41727U 16049A   26204.85427579 -.00000029  00000+0  42950-5 0  9998
2 41727  98.4029 212.0876 0001777  82.3084 277.8307 14.42219020523939
